ZHUHAI-1 02 (CAS-4B)    
1 42759U 17034B   23197.41010386  .00007593  00000+0  37806-3 0  9997
2 42759  43.0169 313.1752 0012242 288.7140  71.2379 15.17913697336072
ZHUHAI-1 01 (CAS-4A)    
1 42761U 17034D   23197.42614673  .00007171  00000+0  35769-3 0  9998
2 42761  43.0156 311.6132 0012941 290.4833  69.4626 15.17909692336086
MAX VALIER SAT          
1 42778U 17036P   23197.08960898  .00022503  00000+0  55997-3 0  9994
2 42778  97.1519 231.2739 0007082  15.3383 344.8077 15.40253375337178
RADFXSAT (FOX-1B)       
1 43017U 17073E   23196.66242204  .00008212  00000+0  57099-3 0  9995
2 43017  97.6275  79.8782 0231186 335.6425  23.4000 14.86581854305415
FOX-1D (AO-92)          
1 43137U 18004AC  23196.72242070  .00038446  00000+0  73164-3 0  9994
2 43137  97.3279 276.2634 0004965  50.0056 310.1629 15.48115747306719
DIWATA-2B               
1 43678U 18084H   23197.40025498  .00001521  00000+0  15002-3 0  9992
2 43678  98.0265 341.9650 0010743  68.6817 291.5548 14.93525038256624
ES'HAIL 2               
1 43700U 18090A   23197.25182840  .00000144  00000+0  00000+0 0  9991
2 43700   0.0277  54.6044 0001855 108.1788 247.4921  1.00270200 17220
FOX-1CLIFF (AO-95)      
1 43770U 18099N   23196.71024456  .00005795  00000+0  46794-3 0  9996
2 43770  97.5690 257.4719 0014939  53.0467 307.2122 15.00126109251881
ITASAT 1                
1 43786U 18099AE  23196.71897899  .00005139  00000+0  41945-3 0  9997
2 43786  97.5741 258.5145 0014969  41.1480 319.0869 14.99762489251924
JY1SAT (JO-97)          
1 43803U 18099AX  23197.11363093  .00005615  00000+0  44114-3 0  9996
2 43803  97.5734 258.9497 0014943   5.9538 354.1862 15.01193691252037
UWE-4                   
1 43880U 18111E   23197.19600953  .00005759  00000+0  43550-3 0  9995
2 43880  97.6350 101.9309 0021387  77.2370 283.1244 15.02547130246728
NEXUS (FO-99)           
1 43937U 19003F   23196.74389957  .00068406  00000+0  96300-3 0  9996
2 43937  97.0828 223.6636 0013584 160.7417 199.4355 15.56320737250481
JAISAT-1                
1 44419U 19038F   23197.18077360  .00020838  00000+0  68269-3 0  9991
2 44419  97.6732 179.8969 0014277 187.7784 172.3238 15.31585458222973
DUCHIFAT-3              
1 44854U 19089C   23197.36984657  .00006887  00000+0  45915-3 0  9997
2 44854  36.9618 276.8210 0008899 198.7601 161.2816 15.06709517197230
CAS-6 (TIANQIN 1)       
1 44881U 19093C   23197.45306631  .00000993  00000+0  12974-3 0  9993
2 44881  97.8614 275.4069 0014291 348.3646  11.7235 14.82602023193130
RS-44 & BREEZE-KM R/B   
1 44909U 19096E   23195.74303592  .00000012  00000+0 -61199-5 0  9998
2 44909  82.5235 329.6337 0218439 122.4393 239.8040 12.79722103165739
BY70-2                  
1 45857U 20042B   23197.47008200  .00015439  00000+0  15441-2 0  9998
2 45857  97.9260 277.4897 0007827 259.4849 100.5487 14.91511139163902
SALSAT                  
1 46495U 20068K   23196.85494016  .00004956  00000+0  32548-3 0  9990
2 46495  97.7711 145.1677 0016284  29.3896 330.8243 15.07994774153398
RADFXSAT-2 (AO-109)     
1 47311U 21002C   23196.75118455  .00028860  00000+0  71083-3 0  9993
2 47311  60.6811 308.6108 0006263 233.3240 126.7280 15.40459649138690
UVSQ-SAT                
1 47438U 21006AB  23197.10206015  .00014615  00000+0  58292-3 0  9997
2 47438  97.3830 253.8063 0008516 349.0339  11.0712 15.25255474137054
DIY-1 (ARDUIQUBE)       
1 47963U 21022AH  23197.23903377  .01265521  75912-3  36118-2 0  9992
2 47963  97.4822 108.1170 0015211 162.2771 197.9037 15.93202856127161
LEDSAT                  
1 49069U 21073D   23197.45732962  .00007538  00000+0  40817-3 0  9996
2 49069  97.4822 267.8430 0023911  23.2081 337.0225 15.14665532105336
XW-3 (CAS-9)            
1 50466U 21131B   23197.44420048  .00000578  00000+0  20168-3 0  9996
2 50466  98.5520 278.8990 0005221  62.8134 297.3585 14.38961395 81567
TEVEL-3                 
1 50988U 22002E   23197.43124282  .00017692  00000+0  68485-3 0  9992
2 50988  97.4324 264.2162 0009041 129.7000 230.5037 15.26208382 83229
TEVEL-8                 
1 50989U 22002F   23197.38571588  .00017580  00000+0  68198-3 0  9999
2 50989  97.4341 264.2333 0009084 129.0815 231.1233 15.26138212 83211
TEVEL-5                 
1 50998U 22002Q   23197.42520241  .00018401  00000+0  69343-3 0  9990
2 50998  97.4318 264.6291 0010165 125.2319 234.9873 15.27083147 83253
TEVEL-6                 
1 50999U 22002R   23197.42371744  .00018671  00000+0  70353-3 0  9995
2 50999  97.4316 264.6218 0010143 125.0244 235.1948 15.27083593 83253
TEVEL-1                 
1 51013U 22002AF  23197.37638823  .00017333  00000+0  67210-3 0  9993
2 51013  97.4317 264.1002 0008971 129.6476 230.5555 15.26157411 83210
TEVEL-7                 
1 51062U 22002CG  23197.45189651  .00017707  00000+0  68640-3 0  9999
2 51062  97.4337 264.2714 0009047 128.6034 231.6016 15.26162164 83227
TEVEL-4                 
1 51063U 22002CH  23197.45903846  .00017900  00000+0  69507-3 0  9998
2 51063  97.4335 264.2596 0009058 128.5829 231.6222 15.26102823 83222
TEVEL-2                 
1 51069U 22002CP  23197.43298500  .00017165  00000+0  66452-3 0  9995
2 51069  97.4322 264.1883 0008981 129.6376 230.5656 15.26213228 83226
GREENCUBE               
1 53106U 22080B   23197.46866997 -.00000003  00000+0  00000+0 0  9996
2 53106  70.1629 309.5445 0008593 180.4832 179.5821  6.42556820 23638
CYCLOPS (RS29S SXC3-21*)
1 53373U 22096D   23197.38002640  .00028351  00000+0  69242-3 0  9999
2 53373  97.4111 104.0451 0003524  94.6685 265.4964 15.40799503 52188
MONITOR-1 (RS32S SXC3-*)
1 53374U 22096E   23197.36661232  .00024009  00000+0  60702-3 0  9994
2 53374  97.4087 103.8598 0003627  85.7627 274.4033 15.39778318 52176
KUZBASS-300 (RS34S SXC*)
1 53375U 22096F   23197.42764731  .00022439  00000+0  61036-3 0  9996
2 53375  97.4116 103.5299 0003362  82.3968 277.7658 15.37541047 52154
UTMN (RS23S SXC3-216)   
1 53376U 22096G   23197.37463670  .00022841  00000+0  60997-3 0  9991
2 53376  97.4113 103.5919 0003313  86.6679 273.4944 15.38106807 52156
MIET-AIS (RS28S SXC3-2*)
1 53377U 22096H   23197.38190245  .00020069  00000+0  55636-3 0  9992
2 53377  97.4126 103.4491 0003169  81.5718 278.5886 15.36973834 52142
KAI-1 (RS26S)           
1 53378U 22096J   23197.38455076  .00017190  00000+0  50240-3 0  9996
2 53378  97.4141 103.1622 0002965  79.1941 280.9635 15.35353295 52126
ISOI (RS19S SXC3-219)   
1 53381U 22096M   23197.37841395  .00020439  00000+0  55071-3 0  9999
2 53381  97.4114 103.7353 0001759  18.2993 341.8315 15.37858286 52166
CUBESX-HSE-2 (RS21S)    
1 53383U 22096P   23197.40717910  .00022554  00000+0  59704-3 0  9997
2 53383  97.4116 103.8619 0002062  10.6928 349.4360 15.38384032 52177
SIREN (RS30S SXC3-217)  
1 53384U 22096Q   23197.40445361  .00019015  00000+0  53255-3 0  9999
2 53384  97.4130 103.5794 0001957   0.9507 359.1740 15.36670264 52153
GEOSCAN-EDELVEIS (RS20S)
1 53385U 22096R   23197.38220911  .00031209  00000+0  72304-3 0  9994
2 53385  97.4098 104.6295 0001400 353.9474   6.1756 15.42379181 52250
VIZARD (RS33S SXC3-215) 
1 53386U 22096S   23197.41339338  .00046252  00000+0  91795-3 0  9992
2 53386  97.4099 105.5007 0001537  18.1596 341.9708 15.46870207 52301
CAS-5A (FO-118)         
1 54684U 22167C   23197.41461473  .00010036  00000+0  54522-3 0  9997
2 54684  97.5653 334.8084 0012730 230.1953 129.8158 15.14641103 33107
STRATOSAT-TK 1 (RS52S)  
1 57167U 23091B   23197.31541641  .00006354  00000+0  47057-3 0  9991
2 57167  97.6624 247.8433 0018529 181.7574 178.3589 15.03348590  2811
UMKA 1 (RS40S)          
1 57172U 23091G   23197.38065768  .00003008  00000+0  22484-3 0  9995
2 57172  97.6622 247.9106 0018281 181.0928 179.0261 15.03420226  2827
CUBESX-HSE 3 (RS42S)    
1 57178U 23091N   23197.38290075  .00004276  00000+0  31885-3 0  9995
2 57178  97.6661 247.9214 0019607 175.7099 184.4298 15.03263140  2828
MONITOR-4 (RS57S)       
1 57182U 23091S   23197.38352692  .00003885  00000+0  29053-3 0  9993
2 57182  97.6650 247.9190 0019796 176.4238 183.7132 15.03207667  2827
MONITOR-2 (RS39S)       
1 57184U 23091U   23197.37209740  .00003158  00000+0  23189-3 0  9996
2 57184  97.6650 247.9264 0015536 171.5500 188.5991 15.04096057  2823
SVYATOBOR 1 (RS60S)     
1 57187U 23091X   23197.36998892  .00004604  00000+0  33426-3 0  9993
2 57187  97.6651 247.9287 0015464 170.0893 190.0641 15.04286816  2825
VIZARD-METEO (RS38S)    
1 57189U 23091Z   23197.36627961  .00005894  00000+0  42313-3 0  9998
2 57189  97.6648 247.9309 0014604 168.6332 191.5226 15.04604828  2826
NANOZOND 1 (RS49S)      
1 57190U 23091AA  23197.36419193  .00007582  00000+0  54030-3 0  9991
2 57190  97.6625 247.9222 0013316 174.2431 185.8951 15.04803344  2824
UTMN 2 (RS27S)          
1 57203U 23091AP  23197.36711044  .00005534  00000+0  39835-3 0  9997
2 57203  97.6647 247.9303 0014879 168.8241 191.3318 15.04530227  2822
ARCCUBE 1 (RS25S)       
1 57205U 23091AR  23197.36501532  .00008224  00000+0  58637-3 0  9998
2 57205  97.6607 247.9175 0013667 176.2158 183.9174 15.04749866  2829
KUZGTU 1 (RS47S)        
1 57217U 23091AV  23197.38230045  .00004016  00000+0  29937-3 0  9997
2 57217  97.6635 247.9160 0019421 177.1513 182.9826 15.03308312  2825
